COMMENT,ORIGINATOR,NORAD_CAT_ID,OBJECT_NAME,OBJECT_TYPE,CLASSIFICATION_TYPE,INTLDES,EPOCH,EPOCH_MICROSECONDS,MEAN_MOTION,ECCENTRICITY,INCLINATION,RA_OF_ASC_NODE,ARG_OF_PERICENTER,MEAN_ANOMALY,EPHEMERIS_TYPE,ELEMENT_SET_NO,REV_AT_EPOCH,BSTAR,MEAN_MOTION_DOT,MEAN_MOTION_DDOT,FILE,TLE_LINE0,TLE_LINE1,TLE_LINE2,OBJECT_ID,OBJECT_NUMBER,SEMIMAJOR_AXIS,PERIOD,APOGEE,PERIGEE,DECAYED
GENERATED VIA SPACETRACK.ORG API,18 SPCS,26998,TIMED,PAYLOAD,U,01055B,8/12/24 12:31,621184,14.91738943,0.0002115,74.0716,148.4497,221.7688,138.3333,0,999,23022,0.00091587,0.00009201,0,4431433,0 TIMED,1 26998U 01055B   24225.52162756  .00009201  00000-0  91587-3 0  9999,2 26998  74.0716 148.4497 0002115 221.7688 138.3333 14.91738943230223,2001-055B,26998,6970.65,96.532,593.989,591.041,0
GENERATED VIA SPACETRACK.ORG API,18 SPCS,26998,TIMED,PAYLOAD,U,01055B,8/12/24 22:10,690368,14.91751152,0.0002087,74.0714,147.6443,221.0941,139.0085,0,999,23028,0.001282,0.00012905,0,4432249,0 TIMED,1 26998U 01055B   24225.92401262  .00012905  00000-0  12820-2 0  9998,2 26998  74.0714 147.6443 0002087 221.0941 139.0085 14.91751152230281,2001-055B,26998,6970.612,96.531,593.932,591.022,0
GENERATED VIA SPACETRACK.ORG API,18 SPCS,26998,TIMED,PAYLOAD,U,01055B,8/13/24 4:36,33824,14.91746732,0.000206,74.0715,147.1073,220.4107,139.6923,0,999,23046,0.00070312,0.00007054,0,4432428,0 TIMED,1 26998U 01055B   24226.19226891  .00007054  00000-0  70312-3 0  9991,2 26998  74.0715 147.1073 0002060 220.4107 139.6923 14.91746732230469,2001-055B,26998,6970.626,96.531,593.927,591.055,0
GENERATED VIA SPACETRACK.ORG API,18 SPCS,26998,TIMED,PAYLOAD,U,01055B,8/13/24 14:16,803200,14.91755978,0.0002051,74.0714,146.3019,219.3979,140.7055,0,999,23038,0.00078621,0.00007894,0,4434080,0 TIMED,1 26998U 01055B   24226.59465050  .00007894  00000-0  78621-3 0  9990,2 26998  74.0714 146.3019 0002051 219.3979 140.7055 14.91755978230385,2001-055B,26998,6970.597,96.531,593.892,591.032,0
GENERATED VIA SPACETRACK.ORG API,18 SPCS,26998,TIMED,PAYLOAD,U,01055B,8/13/24 22:19,167808,14.91761004,0.000204,74.0714,145.6306,218.6937,141.41,0,999,23043,0.00070208,0.00007046,0,4434793,0 TIMED,1 26998U 01055B   24226.92996722  .00007046  00000-0  70208-3 0  9994,2 26998  74.0714 145.6306 0002040 218.6937 141.4100 14.91761004230432,2001-055B,26998,6970.581,96.53,593.868,591.024,0
GENERATED VIA SPACETRACK.ORG API,18 SPCS,26998,TIMED,PAYLOAD,U,01055B,8/14/24 4:45,191584,14.91765841,0.0002031,74.0714,145.0936,218.0225,142.0815,0,999,23061,0.00071272,0.00007154,0,4434892,0 TIMED,1 26998U 01055B   24227.19821981  .00007154  00000-0  71272-3 0  9990,2 26998  74.0714 145.0936 0002031 218.0225 142.0815 14.91765841230612,2001-055B,26998,6970.566,96.53,593.847,591.016,0
GENERATED VIA SPACETRACK.ORG API,18 SPCS,26998,TIMED,PAYLOAD,U,01055B,8/14/24 11:11,188576,14.9176729,0.0002013,74.0715,144.5565,217.4048,142.6995,0,999,23051,0.00054308,0.00005441,0,4436169,0 TIMED,1 26998U 01055B   24227.46647209  .00005441  00000-0  54308-3 0  9997,2 26998  74.0715 144.5565 0002013 217.4048 142.6995 14.91767290230515,2001-055B,26998,6970.562,96.53,593.83,591.024,0
GENERATED VIA SPACETRACK.ORG API,18 SPCS,26998,TIMED,PAYLOAD,U,01055B,8/14/24 22:27,771744,14.9177267,0.0002026,74.0716,143.6168,218.1384,141.9655,0,999,23058,0.00047567,0.00004761,0,4436629,0 TIMED,1 26998U 01055B   24227.93591171  .00004761  00000-0  47567-3 0  9998,2 26998  74.0716 143.6168 0002026 218.1384 141.9655 14.91772670230580,2001-055B,26998,6970.545,96.529,593.822,590.998,0
GENERATED VIA SPACETRACK.ORG API,18 SPCS,26998,TIMED,PAYLOAD,U,01055B,8/15/24 4:53,639136,14.91775778,0.0002016,74.0717,143.0798,217.506,142.5982,0,999,23076,0.00047603,0.00004765,0,4436771,0 TIMED,1 26998U 01055B   24228.20416249  .00004765  00000-0  47603-3 0  9996,2 26998  74.0717 143.0798 0002016 217.5060 142.5982 14.91775778230769,2001-055B,26998,6970.535,96.529,593.806,590.995,0
GENERATED VIA SPACETRACK.ORG API,18 SPCS,26998,TIMED,PAYLOAD,U,01055B,8/15/24 11:20,457280,14.91778729,0.0001998,74.0717,142.5427,217.0457,143.0588,0,999,23066,0.00046849,0.00004689,0,4437176,0 TIMED,1 26998U 01055B   24228.47241270  .00004689  00000-0  46849-3 0  9991,2 26998  74.0717 142.5427 0001998 217.0457 143.0588 14.91778729230661,2001-055B,26998,6970.526,96.529,593.784,590.999,0
GENERATED VIA SPACETRACK.ORG API,18 SPCS,26998,TIMED,PAYLOAD,U,01055B,8/16/24 5:02,524224,14.91786753,0.0001985,74.0718,141.066,215.9787,144.1263,0,999,23091,0.00050858,0.00005095,0,4438213,0 TIMED,1 26998U 01055B   24229.21009866  .00005095  00000-0  50858-3 0  9994,2 26998  74.0718 141.0660 0001985 215.9787 144.1263 14.91786753230910,2001-055B,26998,6970.501,96.529,593.75,590.983,0
GENERATED VIA SPACETRACK.ORG API,18 SPCS,26998,TIMED,PAYLOAD,U,01055B,8/17/24 3:34,694368,14.91795786,0.0001954,74.072,139.1865,214.2355,145.8702,0,999,23091,0.00050289,0.00005039,0,4440885,0 TIMED,1 26998U 01055B   24230.14896637  .00005039  00000-0  50289-3 0  9994,2 26998  74.0720 139.1865 0001954 214.2355 145.8702 14.91795786230919,2001-055B,26998,6970.473,96.528,593.7,590.976,0
GENERATED VIA SPACETRACK.ORG API,18 SPCS,26998,TIMED,PAYLOAD,U,01055B,8/17/24 16:27,693024,14.91801799,0.0001937,74.0722,138.1125,213.2073,146.8988,0,999,23113,0.00053595,0.00005373,0,4440989,0 TIMED,1 26998U 01055B   24230.68545941  .00005373  00000-0  53595-3 0  9996,2 26998  74.0722 138.1125 0001937 213.2073 146.8988 14.91801799231130,2001-055B,26998,6970.454,96.528,593.67,590.969,0
GENERATED VIA SPACETRACK.ORG API,18 SPCS,26998,TIMED,PAYLOAD,U,01055B,8/17/24 21:16,23456,14.91804802,0.0001931,74.0722,137.7097,212.8876,147.2187,0,999,23102,0.00058378,0.00005857,0,4441361,0 TIMED,1 26998U 01055B   24230.88664379  .00005857  00000-0  58378-3 0  9996,2 26998  74.0722 137.7097 0001931 212.8876 147.2187 14.91804802231025,2001-055B,26998,6970.445,96.527,593.656,590.964,0
GENERATED VIA SPACETRACK.ORG API,18 SPCS,26998,TIMED,PAYLOAD,U,01055B,8/18/24 3:43,401824,14.91807905,0.000192,74.0722,137.1726,211.2327,148.8742,0,999,23106,0.00057948,0.00005814,0,4442839,0 TIMED,1 26998U 01055B   24231.15488891  .00005814  00000-0  57948-3 0  9995,2 26998  74.0722 137.1726 0001920 211.2327 148.8742 14.91807905231065,2001-055B,26998,6970.435,96.527,593.639,590.962,0
GENERATED VIA SPACETRACK.ORG API,18 SPCS,26998,TIMED,PAYLOAD,U,01055B,8/18/24 19:48,149024,14.9181471,0.0001903,74.0722,135.83,210.4853,149.6219,0,999,23130,0.00053554,0.00005371,0,4442986,0 TIMED,1 26998U 01055B   24231.82549941  .00005371  00000-0  53554-3 0  9990,2 26998  74.0722 135.8300 0001903 210.4853 149.6219 14.91814710231301,2001-055B,26998,6970.414,96.527,593.606,590.953,0
GENERATED VIA SPACETRACK.ORG API,18 SPCS,26998,TIMED,PAYLOAD,U,01055B,8/18/24 21:25,205600,14.91815327,0.0001916,74.0723,135.6957,211.0152,149.0917,0,999,23117,0.00053075,0.00005323,0,4443368,0 TIMED,1 26998U 01055B   24231.89256025  .00005323  00000-0  53075-3 0  9990,2 26998  74.0723 135.6957 0001916 211.0152 149.0917 14.91815327231170,2001-055B,26998,6970.412,96.527,593.613,590.942,0
GENERATED VIA SPACETRACK.ORG API,18 SPCS,26998,TIMED,PAYLOAD,U,01055B,8/19/24 10:17,596864,14.91819771,0.0001911,74.0723,134.6214,210.2699,149.8373,0,999,23125,0.00045588,0.00004566,0,4444727,0 TIMED,1 26998U 01055B   24232.42904626  .00004566  00000-0  45588-3 0  9995,2 26998  74.0723 134.6214 0001911 210.2699 149.8373 14.91819771231257,2001-055B,26998,6970.398,96.526,593.595,590.931,0
GENERATED VIA SPACETRACK.ORG API,18 SPCS,26998,TIMED,PAYLOAD,U,01055B,8/20/24 4:00,886560,14.91827174,0.0001879,74.0721,133.1445,209.0141,151.0937,0,999,23150,0.00043703,0.00004377,0,4445457,0 TIMED,1 26998U 01055B   24233.16671165  .00004377  00000-0  43703-3 0  9993,2 26998  74.0721 133.1445 0001879 209.0141 151.0937 14.91827174231501,2001-055B,26998,6970.375,96.526,593.55,590.931,0
GENERATED VIA SPACETRACK.ORG API,18 SPCS,26998,TIMED,PAYLOAD,U,01055B,8/20/24 13:39,937440,14.91830415,0.0001872,74.072,132.3388,208.4688,151.6393,0,999,23142,0.00042572,0.00004263,0,4446563,0 TIMED,1 26998U 01055B   24233.56907335  .00004263  00000-0  42572-3 0  9995,2 26998  74.0720 132.3388 0001872 208.4688 151.6393 14.91830415231424,2001-055B,26998,6970.365,96.526,593.535,590.925,0
GENERATED VIA SPACETRACK.ORG API,18 SPCS,26998,TIMED,PAYLOAD,U,01055B,8/21/24 4:08,874656,14.91836254,0.0001829,74.0717,131.1304,207.2244,152.8843,0,999,23165,0.00045489,0.00004558,0,4447266,0 TIMED,1 26998U 01055B   24234.17261429  .00004558  00000-0  45489-3 0  9997,2 26998  74.0717 131.1304 0001829 207.2244 152.8843 14.91836254231657,2001-055B,26998,6970.347,96.525,593.487,590.937,0
GENERATED VIA SPACETRACK.ORG API,18 SPCS,26998,TIMED,PAYLOAD,U,01055B,8/21/24 20:14,609248,14.91841516,0.0001825,74.0715,129.7877,205.6504,154.4589,0,999,23161,0.00044674,0.00004476,0,4449034,0 TIMED,1 26998U 01055B   24234.84321307  .00004476  00000-0  44674-3 0  9997,2 26998  74.0715 129.7877 0001825 205.6504 154.4589 14.91841516231618,2001-055B,26998,6970.331,96.525,593.468,590.924,0
GENERATED VIA SPACETRACK.ORG API,18 SPCS,26998,TIMED,PAYLOAD,U,01055B,8/22/24 10:43,190496,14.91846235,0.000177,74.0711,128.5792,204.7769,155.3329,0,999,23170,0.00044162,0.00004425,0,4449626,0 TIMED,1 26998U 01055B   24235.44674989  .00004425  00000-0  44162-3 0  9997,2 26998  74.0711 128.5792 0001770 204.7769 155.3329 14.91846235231704,2001-055B,26998,6970.316,96.525,593.415,590.947,0
GENERATED VIA SPACETRACK.ORG API,18 SPCS,26998,TIMED,PAYLOAD,U,01055B,8/22/24 18:46,878944,14.91848796,0.0001766,74.071,127.9078,203.8681,156.242,0,999,23189,0.0004305,0.00004313,0,4449916,0 TIMED,1 26998U 01055B   24235.78204721  .00004313  00000-0  43050-3 0  9998,2 26998  74.0710 127.9078 0001766 203.8681 156.2420 14.91848796231897,2001-055B,26998,6970.308,96.525,593.404,590.942,0
